start=new Date('2022-12-14T00:00:00.000Z').valueOf();
sats=[{"CENTER_NAME":"EARTH","RCS_SIZE":"LARGE","EPHEMERIS_TYPE":"0","INCLINATION":"53.0538","TLE_LINE2":"2 47124  53.0538 214.2973 0001402  64.9160 295.1975 15.06401093113568","APOAPSIS":"548.181","FILE":"3697190","DECAY_DATE":null,"MEAN_MOTION_DOT":"-0.00001008","REF_FRAME":"TEME","LAUNCH_DATE":"2020-11-25","MEAN_MOTION":"15.06401093","MEAN_MOTION_DDOT":"0.0000000000000","PERIAPSIS":"546.239","OBJECT_TYPE":"PAYLOAD","ELEMENT_SET_NO":"999","MEAN_ANOMALY":"295.1975","CLASSIFICATION_TYPE":"U","OBJECT_ID":"2020-088C","ARG_OF_PERICENTER":"64.9160","TIME_SYSTEM":"UTC","COUNTRY_CODE":"US","REV_AT_EPOCH":"11356","SITE":"AFETR","GP_ID":"220276631","NORAD_CAT_ID":"47124","BSTAR":"-0.00004877000000","MEAN_ELEMENT_THEORY":"SGP4","ECCENTRICITY":"0.00014020","EPOCH":"2022-12-13T08:47:19.940064","OBJECT_NAME":"STARLINK-1785","SEMIMAJOR_AXIS":"6925.345","TLE_LINE1":"1 47124U 20088C   22347.36620301 -.00001008  00000-0 -48770-4 0  9996","RA_OF_ASC_NODE":"214.2973","PERIOD":"95.592"},{"COUNTRY_CODE":"US","REV_AT_EPOCH":"11363","OBJECT_ID":"2020-088E","TIME_SYSTEM":"UTC","ARG_OF_PERICENTER":"64.7813","GP_ID":"220277383","NORAD_CAT_ID":"47126","SITE":"AFETR","MEAN_ELEMENT_THEORY":"SGP4","BSTAR":"0.00002187000000","EPOCH":"2022-12-13T08:08:11.385888","ECCENTRICITY":"0.00014780","SEMIMAJOR_AXIS":"6925.351","OBJECT_NAME":"STARLINK-1812","RA_OF_ASC_NODE":"209.3895","PERIOD":"95.592","TLE_LINE1":"1 47126U 20088E   22347.33902067  .00000044  00000-0  21870-4 0  9996","INCLINATION":"53.0535","RCS_SIZE":"LARGE","CENTER_NAME":"EARTH","EPHEMERIS_TYPE":"0","TLE_LINE2":"2 47126  53.0535 209.3895 0001478  64.7813 295.3329 15.06399049113631","FILE":"3697190","APOAPSIS":"548.240","DECAY_DATE":null,"MEAN_MOTION_DOT":"0.00000044","REF_FRAME":"TEME","LAUNCH_DATE":"2020-11-25","PERIAPSIS":"546.193","MEAN_MOTION_DDOT":"0.0000000000000","MEAN_MOTION":"15.06399049","MEAN_ANOMALY":"295.3329","CLASSIFICATION_TYPE":"U","ELEMENT_SET_NO":"999","OBJECT_TYPE":"PAYLOAD"},{"LAUNCH_DATE":"2020-11-25","OBJECT_TYPE":"PAYLOAD","ELEMENT_SET_NO":"999","CLASSIFICATION_TYPE":"U","MEAN_ANOMALY":"273.9244","MEAN_MOTION":"15.06401427","MEAN_MOTION_DDOT":"0.0000000000000","PERIAPSIS":"546.169","TLE_LINE2":"2 47128  53.0527 189.5859 0001502  86.1917 273.9244 15.06401427113906","CENTER_NAME":"EARTH","RCS_SIZE":"LARGE","EPHEMERIS_TYPE":"0","INCLINATION":"53.0527","DECAY_DATE":null,"MEAN_MOTION_DOT":"0.00001164","REF_FRAME":"TEME","APOAPSIS":"548.249","FILE":"3697190","OBJECT_NAME":"STARLINK-1837","SEMIMAJOR_AXIS":"6925.344","ECCENTRICITY":"0.00015020","EPOCH":"2022-12-13T07:07:08.692896","TLE_LINE1":"1 47128U 20088G   22347.29662839  .00001164  00000-0  97025-4 0  9992","RA_OF_ASC_NODE":"189.5859","PERIOD":"95.592","SITE":"AFETR","NORAD_CAT_ID":"47128","GP_ID":"220277621","OBJECT_ID":"2020-088G","ARG_OF_PERICENTER":"86.1917","TIME_SYSTEM":"UTC","COUNTRY_CODE":"US","REV_AT_EPOCH":"11390","BSTAR":"0.00009702500000","MEAN_ELEMENT_THEORY":"SGP4"},{"LAUNCH_DATE":"2020-11-25","PERIAPSIS":"546.231","MEAN_MOTION":"15.06402531","MEAN_MOTION_DDOT":"0.0000000000000","MEAN_ANOMALY":"292.8065","CLASSIFICATION_TYPE":"U","OBJECT_TYPE":"PAYLOAD","ELEMENT_SET_NO":"999","INCLINATION":"53.0539","EPHEMERIS_TYPE":"0","RCS_SIZE":"LARGE","CENTER_NAME":"EARTH","TLE_LINE2":"2 47129  53.0539 198.2778 0001407  67.3073 292.8065 15.06402531113813","FILE":"3697190","APOAPSIS":"548.180","MEAN_MOTION_DOT":"0.00002718","REF_FRAME":"TEME","DECAY_DATE":null,"EPOCH":"2022-12-13T14:10:27.085728","ECCENTRICITY":"0.00014070","SEMIMAJOR_AXIS":"6925.341","OBJECT_NAME":"STARLINK-1838","PERIOD":"95.592","RA_OF_ASC_NODE":"198.2778","TLE_LINE1":"1 47129U 20088H   22347.59059127  .00002718  00000-0  20128-3 0  9991","REV_AT_EPOCH":"11381","COUNTRY_CODE":"US","TIME_SYSTEM":"UTC","ARG_OF_PERICENTER":"67.3073","OBJECT_ID":"2020-088H","NORAD_CAT_ID":"47129","GP_ID":"220275882","SITE":"AFETR","MEAN_ELEMENT_THEORY":"SGP4","BSTAR":"0.00020128000000"},{"SITE":"AFETR","GP_ID":"220276132","NORAD_CAT_ID":"47130","OBJECT_ID":"2020-088J","ARG_OF_PERICENTER":"130.9283","TIME_SYSTEM":"UTC","COUNTRY_CODE":"US","REV_AT_EPOCH":"11373","BSTAR":"0.00073499000000","MEAN_ELEMENT_THEORY":"SGP4","OBJECT_NAME":"STARLINK-1839","SEMIMAJOR_AXIS":"6784.469","ECCENTRICITY":"0.00038900","EPOCH":"2022-12-13T07:13:03.443520","TLE_LINE1":"1 47130U 20088J   22347.30073430  .00047422  00000-0  73499-3 0  9995","PERIOD":"92.690","RA_OF_ASC_NODE":"201.8186","TLE_LINE2":"2 47130  53.0540 201.8186 0003890 130.9283 229.2064 15.53563383113738","CENTER_NAME":"EARTH","RCS_SIZE":"LARGE","EPHEMERIS_TYPE":"0","INCLINATION":"53.0540","DECAY_DATE":null,"REF_FRAME":"TEME","MEAN_MOTION_DOT":"0.00047422","APOAPSIS":"408.973","FILE":"3697190","LAUNCH_DATE":"2020-11-25","ELEMENT_SET_NO":"999","OBJECT_TYPE":"PAYLOAD","CLASSIFICATION_TYPE":"U","MEAN_ANOMALY":"229.2064","MEAN_MOTION_DDOT":"0.0000000000000","MEAN_MOTION":"15.53563383","PERIAPSIS":"403.695"},{"PERIOD":"95.591","RA_OF_ASC_NODE":"198.3125","TLE_LINE1":"1 47133U 20088M   22347.58320400 -.00003929  00000-0 -24489-3 0  9991","EPOCH":"2022-12-13T13:59:48.825600","ECCENTRICITY":"0.00019160","SEMIMAJOR_AXIS":"6925.304","OBJECT_NAME":"STARLINK-1843","MEAN_ELEMENT_THEORY":"SGP4","BSTAR":"-0.00024489000000","COUNTRY_CODE":"US","REV_AT_EPOCH":"11380","OBJECT_ID":"2020-088M","ARG_OF_PERICENTER":"83.3983","TIME_SYSTEM":"UTC","GP_ID":"220276884","NORAD_CAT_ID":"47133","SITE":"AFETR","PERIAPSIS":"545.842","MEAN_MOTION_DDOT":"0.0000000000000","MEAN_MOTION":"15.06414471","CLASSIFICATION_TYPE":"U","MEAN_ANOMALY":"276.7224","OBJECT_TYPE":"PAYLOAD","ELEMENT_SET_NO":"999","LAUNCH_DATE":"2020-11-25","FILE":"3697190","APOAPSIS":"548.496","DECAY_DATE":null,"MEAN_MOTION_DOT":"-0.00003929","REF_FRAME":"TEME","INCLINATION":"53.0504","CENTER_NAME":"EARTH","RCS_SIZE":"LARGE","EPHEMERIS_TYPE":"0","TLE_LINE2":"2 47133  53.0504 198.3125 0001916  83.3983 276.7224 15.06414471113803"},{"NORAD_CAT_ID":"47134","GP_ID":"220277122","SITE":"AFETR","REV_AT_EPOCH":"11363","COUNTRY_CODE":"US","ARG_OF_PERICENTER":"66.2062","TIME_SYSTEM":"UTC","OBJECT_ID":"2020-088N","MEAN_ELEMENT_THEORY":"SGP4","BSTAR":"0.00021465000000","SEMIMAJOR_AXIS":"6925.325","OBJECT_NAME":"STARLINK-1844","EPOCH":"2022-12-13T08:34:43.053600","ECCENTRICITY":"0.00015550","PERIOD":"95.592","RA_OF_ASC_NODE":"209.3265","TLE_LINE1":"1 47134U 20088N   22347.35744275  .00002918  00000-0  21465-3 0  9993","TLE_LINE2":"2 47134  53.0536 209.3265 0001555  66.2062 293.9090 15.06407557113634","INCLINATION":"53.0536","EPHEMERIS_TYPE":"0","CENTER_NAME":"EARTH","RCS_SIZE":"LARGE","MEAN_MOTION_DOT":"0.00002918","REF_FRAME":"TEME","DECAY_DATE":null,"FILE":"3697190","APOAPSIS":"548.267","LAUNCH_DATE":"2020-11-25","CLASSIFICATION_TYPE":"U","MEAN_ANOMALY":"293.9090","OBJECT_TYPE":"PAYLOAD","ELEMENT_SET_NO":"999","PERIAPSIS":"546.114","MEAN_MOTION_DDOT":"0.0000000000000","MEAN_MOTION":"15.06407557"},{"TLE_LINE1":"1 47135U 20088P   22347.31045377  .00001383  00000-0  11169-3 0  9992","RA_OF_ASC_NODE":"199.5287","PERIOD":"95.592","OBJECT_NAME":"STARLINK-1845","SEMIMAJOR_AXIS":"6925.342","ECCENTRICITY":"0.00016920","EPOCH":"2022-12-13T07:27:03.205728","BSTAR":"0.00011169000000","MEAN_ELEMENT_THEORY":"SGP4","SITE":"AFETR","NORAD_CAT_ID":"47135","GP_ID":"220276382","OBJECT_ID":"2020-088P","TIME_SYSTEM":"UTC","ARG_OF_PERICENTER":"70.7761","COUNTRY_CODE":"US","REV_AT_EPOCH":"11376","ELEMENT_SET_NO":"999","OBJECT_TYPE":"PAYLOAD","MEAN_ANOMALY":"289.3411","CLASSIFICATION_TYPE":"U","MEAN_MOTION":"15.06402157","MEAN_MOTION_DDOT":"0.0000000000000","PERIAPSIS":"546.035","LAUNCH_DATE":"2020-11-25","DECAY_DATE":null,"REF_FRAME":"TEME","MEAN_MOTION_DOT":"0.00001383","APOAPSIS":"548.379","FILE":"3697190","TLE_LINE2":"2 47135  53.0551 199.5287 0001692  70.7761 289.3411 15.06402157113765","RCS_SIZE":"LARGE","CENTER_NAME":"EARTH","EPHEMERIS_TYPE":"0","INCLINATION":"53.0551"},{"LAUNCH_DATE":"2020-11-25","MEAN_MOTION":"15.06400624","MEAN_MOTION_DDOT":"0.0000000000000","PERIAPSIS":"546.275","OBJECT_TYPE":"PAYLOAD","ELEMENT_SET_NO":"999","MEAN_ANOMALY":"290.5872","CLASSIFICATION_TYPE":"U","CENTER_NAME":"EARTH","RCS_SIZE":"LARGE","EPHEMERIS_TYPE":"0","INCLINATION":"53.0532","TLE_LINE2":"2 47136  53.0532 210.7144 0001352  69.5262 290.5872 15.06400624113580","APOAPSIS":"548.148","FILE":"3697190","DECAY_DATE":null,"MEAN_MOTION_DOT":"-0.00000066","REF_FRAME":"TEME","ECCENTRICITY":"0.00013520","EPOCH":"2022-12-13T01:03:33.993216","OBJECT_NAME":"STARLINK-1846","SEMIMAJOR_AXIS":"6925.347","TLE_LINE1":"1 47136U 20088Q   22347.04414344 -.00000066  00000-0  14438-4 0  9998","RA_OF_ASC_NODE":"210.7144","PERIOD":"95.592","OBJECT_ID":"2020-088Q","ARG_OF_PERICENTER":"69.5262","TIME_SYSTEM":"UTC","COUNTRY_CODE":"US","REV_AT_EPOCH":"11358","SITE":"AFETR","NORAD_CAT_ID":"47136","GP_ID":"220276632","BSTAR":"0.00001443800000","MEAN_ELEMENT_THEORY":"SGP4"},{"LAUNCH_DATE":"2020-11-25","MEAN_MOTION_DDOT":"0.0000000000000","MEAN_MOTION":"15.06367308","PERIAPSIS":"545.998","OBJECT_TYPE":"PAYLOAD","ELEMENT_SET_NO":"999","CLASSIFICATION_TYPE":"U","MEAN_ANOMALY":"301.5257","EPHEMERIS_TYPE":"0","CENTER_NAME":"EARTH","RCS_SIZE":"LARGE","INCLINATION":"53.0537","TLE_LINE2":"2 47137  53.0537 198.1300 0001900  58.5918 301.5257 15.06367308114115","APOAPSIS":"548.630","FILE":"3697425","MEAN_MOTION_DOT":"-0.00009352","REF_FRAME":"TEME","DECAY_DATE":null,"ECCENTRICITY":"0.00019000","EPOCH":"2022-12-13T14:58:15.030912","OBJECT_NAME":"STARLINK-1849","SEMIMAJOR_AXIS":"6925.449","TLE_LINE1":"1 47137U 20088R   22347.62378508 -.00009352  00000-0 -61027-3 0  9997","RA_OF_ASC_NODE":"198.1300","PERIOD":"95.594","ARG_OF_PERICENTER":"58.5918","TIME_SYSTEM":"UTC","OBJECT_ID":"2020-088R","REV_AT_EPOCH":"11411","COUNTRY_CODE":"US","SITE":"AFETR","GP_ID":"220284837","NORAD_CAT_ID":"47137","BSTAR":"-0.00061027000000","MEAN_ELEMENT_THEORY":"SGP4"}];
